GLOBALSTAR M094         
1 39074U 13005C   25271.90782319 -.00000086  00000+0  10055-3 0  9996
2 39074  51.9947 226.3175 0000616  86.1661 273.9276 12.62270038585473
GLOBALSTAR M096         
1 39075U 13005D   25271.44591391 -.00000089  00000+0  85110-4 0  9992
2 39075  52.0065 276.3212 0000561  93.7565 266.3366 12.62267150584331
GLOBALSTAR M078         
1 39076U 13005E   25272.21173513 -.00000131  00000+0 -15135-3 0  9999
2 39076  51.9901 358.3596 0001274  70.0810 290.0194 12.62258472583056
GLOBALSTAR M095         
1 39077U 13005F   25272.23772651 -.00000082  00000+0  12055-3 0  9992
2 39077  52.0110 355.5134 0001025  98.2475 261.8508 12.62260077582914
GLOBALSTAR M087         
1 52888U 22064A   25272.09296324 -.00000096  00000+0  44386-4 0  9992
2 52888  51.9979 137.3444 0000957  84.0053 276.0923 12.62288966158160
